$$SOE
2461288.500000000, A.D. 2026-Sep-05 00:00:00.0000, 2.950708700965372E+07, -3.873173313227814E+08, 1.847207576301775E+08,
2461295.500000000, A.D. 2026-Sep-12 00:00:00.0000, 3.732407355814897E+07, -3.834395927290729E+08, 1.865331295269066E+08,
2461302.500000000, A.D. 2026-Sep-19 00:00:00.0000, 4.511795977653896E+07, -3.793245163880801E+08, 1.882300223388592E+08,
2461309.500000000, A.D. 2026-Sep-26 00:00:00.0000, 5.288348778261936E+07, -3.749710294155862E+08, 1.898085880241141E+08,
2461316.500000000, A.D. 2026-Oct-03 00:00:00.0000, 6.061523767432272E+07, -3.703780655993247E+08, 1.912659079823225E+08,
2461323.500000000, A.D. 2026-Oct-10 00:00:00.0000, 6.830761606210427E+07, -3.655445694895412E+08, 1.925989897680771E+08,
2461330.500000000, A.D. 2026-Oct-17 00:00:00.0000, 7.595484389408171E+07, -3.604695011286054E+08, 1.938047637485907E+08,
2461337.500000000, A.D. 2026-Oct-24 00:00:00.0000, 8.355094354964301E+07, -3.551518415082989E+08, 1.948800797083141E+08,
2461344.500000000, A.D. 2026-Oct-31 00:00:00.0000, 9.108972524933119E+07, -3.495905988962651E+08, 1.958217033957742E+08,
2461351.500000000, A.D. 2026-Nov-07 00:00:00.0000, 9.856477306624945E+07, -3.437848160422627E+08, 1.966263130010872E+08,
2461358.500000000, A.D. 2026-Nov-14 00:00:00.0000, 1.059694306828319E+08, -3.377335774725260E+08, 1.972904956356547E+08,
2461365.500000000, A.D. 2026-Nov-21 00:00:00.0000, 1.132967850209576E+08, -3.314360162979620E+08, 1.978107440570435E+08,
2461372.500000000, A.D. 2026-Nov-28 00:00:00.0000, 1.205396466849040E+08, -3.248913236645418E+08, 1.981834535095231E+08,
2461379.500000000, A.D. 2026-Dec-05 00:00:00.0000, 1.276905307738184E+08, -3.180987616377773E+08, 1.984049183254940E+08,
2461386.500000000, A.D. 2026-Dec-12 00:00:00.0000, 1.347416381648199E+08, -3.110576765642446E+08, 1.984713285664840E+08,
2461393.500000000, A.D. 2026-Dec-19 00:00:00.0000, 1.416848353142778E+08, -3.037675130774976E+08, 1.983787669255610E+08,
2461400.500000000, A.D. 2026-Dec-26 00:00:00.0000, 1.485116323698024E+08, -2.962278298118963E+08, 1.981232058909502E+08,
2461407.500000000, A.D. 2027-Jan-02 00:00:00.0000, 1.552131598053837E+08, -2.884383172354831E+08, 1.977005051991826E+08,
2461414.500000000, A.D. 2027-Jan-09 00:00:00.0000, 1.617801436364820E+08, -2.803988178298600E+08, 1.971064096517267E+08,
2461421.500000000, A.D. 2027-Jan-16 00:00:00.0000, 1.682028791958053E+08, -2.721093488875486E+08, 1.963365473917275E+08,
2461428.500000000, A.D. 2027-Jan-23 00:00:00.0000, 1.744712034701274E+08, -2.635701282803691E+08, 1.953864287515934E+08,
2461435.500000000, A.D. 2027-Jan-30 00:00:00.0000, 1.805744661536435E+08, -2.547816035990939E+08, 1.942514457916926E+08,
2461442.500000000, A.D. 2027-Feb-06 00:00:00.0000, 1.865014998285702E+08, -2.457444847201692E+08, 1.929268726886976E+08,
2461449.500000000, A.D. 2027-Feb-13 00:00:00.0000, 1.922405888220350E+08, -2.364597790243961E+08, 1.914078673183442E+08,
2461456.500000000, A.D. 2027-Feb-20 00:00:00.0000, 1.977794344150346E+08, -2.269288305562706E+08, 1.896894744241701E+08,
2461463.500000000, A.D. 2027-Feb-27 00:00:00.0000, 2.031051178804539E+08, -2.171533668912843E+08, 1.877666302621913E+08,
2461470.500000000, A.D. 2027-Mar-06 00:00:00.0000, 2.082040645048837E+08, -2.071355524029695E+08, 1.856341689342433E+08,
2461477.500000000, A.D. 2027-Mar-13 00:00:00.0000, 2.130620071996675E+08, -1.968780465616308E+08, 1.832868311190722E+08,
2461484.500000000, A.D. 2027-Mar-20 00:00:00.0000, 2.176639488632677E+08, -1.863840688509272E+08, 1.807192757015783E+08,
2461491.500000000, A.D. 2027-Mar-27 00:00:00.0000, 2.219941240971388E+08, -1.756574716740296E+08, 1.779260947823632E+08,
2461498.500000000, A.D. 2027-Apr-03 00:00:00.0000, 2.260359610145346E+08, -1.647028221908968E+08, 1.749018326838395E+08,
2461505.500000000, A.D. 2027-Apr-10 00:00:00.0000, 2.297720439094497E+08, -1.535254940252095E+08, 1.716410096948048E+08,
2461512.500000000, A.D. 2027-Apr-17 00:00:00.0000, 2.331840777228042E+08, -1.421317698767537E+08, 1.681381514166294E+08,
2461519.500000000, A.D. 2027-Apr-24 00:00:00.0000, 2.362528555566160E+08, -1.305289561676542E+08, 1.643878246989908E+08,
2461526.500000000, A.D. 2027-May-01 00:00:00.0000, 2.389582310207815E+08, -1.187255107793658E+08, 1.603846812870296E+08,
2461533.500000000, A.D. 2027-May-08 00:00:00.0000, 2.412790975861312E+08, -1.067311841958679E+08, 1.561235105223160E+08,
2461540.500000000, A.D. 2027-May-15 00:00:00.0000, 2.431933757710171E+08, -9.455717409169838E+07, 1.515993027999323E+08,
2461547.500000000, A.D. 2027-May-22 00:00:00.0000, 2.446780094617884E+08, -8.221629680455261E+07, 1.468073253795440E+08,
2461554.500000000, A.D. 2027-May-29 00:00:00.0000, 2.457089782193117E+08, -6.972317775526667E+07, 1.417432119595648E+08,
2461561.500000000, A.D. 2027-Jun-05 00:00:00.0000, 2.462613306856825E+08, -5.709445788500134E+07, 1.364030681880611E+08,
2461568.500000000, A.D. 2027-Jun-12 00:00:00.0000, 2.463092421425884E+08, -4.434901531267080E+07, 1.307835954573195E+08,
2461575.500000000, A.D. 2027-Jun-19 00:00:00.0000, 2.458261018632359E+08, -3.150820198435638E+07, 1.248822351221655E+08,
2461582.500000000, A.D. 2027-Jun-26 00:00:00.0000, 2.447846374853666E+08, -1.859609331953369E+07, 1.186973352346318E+08,
2461589.500000000, A.D. 2027-Jul-03 00:00:00.0000, 2.431570844759825E+08, -5.639747135953493E+06, 1.122283417245475E+08,
2461596.500000000, A.D. 2027-Jul-10 00:00:00.0000, 2.409154095920454E+08, 7.330533744890433E+06, 1.054760155508868E+08,
2461603.500000000, A.D. 2027-Jul-17 00:00:00.0000, 2.380315979927447E+08, 2.028094312649950E+07, 9.844267663830227E+07,
2461610.500000000, A.D. 2027-Jul-24 00:00:00.0000, 2.344780141883877E+08, 3.317392807651414E+07, 9.113247430789189E+07,
2461617.500000000, A.D. 2027-Jul-31 00:00:00.0000, 2.302278471023890E+08, 4.596797505166961E+07, 8.355168232618596E+07,
2461624.500000000, A.D. 2027-Aug-07 00:00:00.0000, 2.252556478740475E+08, 5.861744475913335E+07, 7.570901464819230E+07,
2461631.500000000, A.D. 2027-Aug-14 00:00:00.0000, 2.195379647029940E+08, 7.107247774129316E+07, 6.761595519438949E+07,
2461638.500000000, A.D. 2027-Aug-21 00:00:00.0000, 2.130540781579482E+08, 8.327899360373190E+07, 5.928709097283764E+07,
2461645.500000000, A.D. 2027-Aug-28 00:00:00.0000, 2.057868373651593E+08, 9.517881483807038E+07, 5.074043378772549E+07,
2461652.500000000, A.D. 2027-Sep-04 00:00:00.0000, 1.977235847873882E+08, 1.067099496684879E+08, 4.199771169844909E+07,
2461659.500000000, A.D. 2027-Sep-11 00:00:00.0000, 1.888571466616375E+08, 1.178070650905975E+08, 3.308460649964827E+07,
2461666.500000000, A.D. 2027-Sep-18 00:00:00.0000, 1.791868551676926E+08, 1.284021778200005E+08, 2.403090923317833E+07,
2461673.500000000, A.D. 2027-Sep-25 00:00:00.0000, 1.687195546627370E+08, 1.384255835274889E+08, 1.487056304129021E+07,
2461680.500000000, A.D. 2027-Oct-02 00:00:00.0000, 1.574705304709962E+08, 1.478070316404730E+08, 5.641562359663829E+06,
2461687.500000000, A.D. 2027-Oct-09 00:00:00.0000, 1.454642872430849E+08, 1.564771342240469E+08, -3.614319408236101E+06,
2461694.500000000, A.D. 2027-Oct-16 00:00:00.0000, 1.327350974563066E+08, 1.643689738747016E+08, -1.285199411079790E+07,
2461701.500000000, A.D. 2027-Oct-23 00:00:00.0000, 1.193272420874664E+08, 1.714198492992850E+08, -2.202372313810903E+07,
2461708.500000000, A.D. 2027-Oct-30 00:00:00.0000, 1.052948769334039E+08, 1.775730721323707E+08, -3.107997344335813E+07,
2461715.500000000, A.D. 2027-Nov-06 00:00:00.0000, 9.070147889484669E+07, 1.827797082143208E+08, -3.997043751621142E+07,
2461722.500000000, A.D. 2027-Nov-13 00:00:00.0000, 7.561885804307751E+07, 1.870001421106009E+08, -4.864517012422595E+07,
2461729.500000000, A.D. 2027-Nov-20 00:00:00.0000, 6.012576527079972E+07, 1.902053458906846E+08, -5.705577845311226E+07,
2461736.500000000, A.D. 2027-Nov-27 00:00:00.0000, 4.430616432940116E+07, 1.923777556755594E+08, -6.515659123943758E+07,
2461743.500000000, A.D. 2027-Dec-04 00:00:00.0000, 2.824726816664355E+07, 1.935116887611488E+08, -7.290573036918153E+07,
2461750.500000000, A.D. 2027-Dec-11 00:00:00.0000, 1.203746432827076E+07, 1.936132734379074E+08, -8.026601633829828E+07,
2461757.500000000, A.D. 2027-Dec-18 00:00:00.0000, -4.235736994338309E+06, 1.926999086966656E+08, -8.720565515160239E+07,
2461764.500000000, A.D. 2027-Dec-25 00:00:00.0000, -2.048760714926273E+07, 1.907993120174896E+08, -9.369867606812264E+07,
2461771.500000000, A.D. 2028-Jan-01 00:00:00.0000, -3.663785284383190E+07, 1.879482444161670E+08, -9.972511345364395E+07,
$$EOE